[{"OBJECT_NAME":"GOES 19","OBJECT_ID":"2024-119A","EPOCH":"2026-03-02T20:36:15.125760","MEAN_MOTION":1.00272261,"ECCENTRICITY":9.39e-5,"INCLINATION":0.0118,"RA_OF_ASC_NODE":287.3929,"ARG_OF_PERICENTER":86.6796,"MEAN_ANOMALY":20.4147,"EPHEMERIS_TYPE":0,"CLASSIFICATION_TYPE":"U","NORAD_CAT_ID":60133,"ELEMENT_SET_NO":999,"REV_AT_EPOCH":589,"BSTAR":0,"MEAN_MOTION_DOT":-2.65e-6,"MEAN_MOTION_DDOT":0},{"OBJECT_NAME":"FENGYUN 3H","OBJECT_ID":"2025-219A","EPOCH":"2026-03-02T22:04:07.004064","MEAN_MOTION":14.19930366,"ECCENTRICITY":0.00014154,"INCLINATION":98.6677,"RA_OF_ASC_NODE":4.808,"ARG_OF_PERICENTER":66.3321,"MEAN_ANOMALY":293.8004,"EPHEMERIS_TYPE":0,"CLASSIFICATION_TYPE":"U","NORAD_CAT_ID":65815,"ELEMENT_SET_NO":999,"REV_AT_EPOCH":2230,"BSTAR":6.0177441e-5,"MEAN_MOTION_DOT":8.5e-7,"MEAN_MOTION_DDOT":0}]
