GOES 19                 
1 60133U 24119A   26061.85850840 -.00000265  00000+0  00000+0 0  9995
2 60133   0.0118 287.3929 0000939  86.6796  20.4147  1.00272261  5899
FENGYUN 3H              
1 65815U 25219A   26061.91952551  .00000085  00000+0  60177-4 0  9993
2 65815  98.6677   4.8080 0001415  66.3321 293.8004 14.19930366 22307
